STARLINK-36757          
1 67728U 26026H   26052.58335648 -.01736999  83386-3 -54371-2 0  9992
2 67728  97.2728 106.3716 0001525  94.5591 109.8125 15.91571999  2720
STARLINK-36751          
1 67729U 26026J   26052.58335648 -.01728582  82993-3 -52934-2 0  9998
2 67729  97.2725 106.3756 0001487  94.0927 119.4692 15.91999453  2722
STARLINK-36747          
1 67730U 26026K   26052.58335648 -.01739516  83754-3 -53982-2 0  9999
2 67730  97.2728 106.3737 0001467  91.4489 116.5848 15.91741175  2725
STARLINK-36315          
1 67731U 26026L   26052.58335648 -.01721069  82455-3 -52271-2 0  9991
2 67731  97.2726 106.3776 0001544  99.5799 117.5517 15.92158668  2720
STARLINK-36260          
1 67732U 26026M   26052.58335648 -.01719613  82494-3 -51689-2 0  9999
2 67732  97.2724 106.3792 0001458  88.2996 133.1553 15.92360034  2721
STARLINK-36746          
1 67733U 26026N   26052.58335648 -.01716120  82292-3 -51234-2 0  9992
2 67733  97.2720 106.3806 0001541  91.2647 133.1803 15.92491191  2721
STARLINK-36749          
1 67734U 26026P   26052.58335648 -.01708686  81804-3 -50461-2 0  9990
2 67734  97.2717 106.3821 0001441  99.9571 128.9764 15.92700575  2722
STARLINK-36691          
1 67735U 26026Q   26052.58335648 -.01692819  80870-3 -48521-2 0  9997
2 67735  97.2712 106.3872 0001477  87.0255 153.8917 15.93274194  2866
STARLINK-36317          
1 67736U 26026R   26052.58335648 -.01693765  80721-3 -49264-2 0  9999
2 67736  97.2712 106.3839 0001486  89.8651 145.2497 15.92992770  2729
STARLINK-36330          
1 67737U 26026S   26052.58335648 -.01674130  79356-3 -47556-2 0  9999
2 67737  97.2709 106.3883 0001398  86.1638 158.5979 15.93444364  2726
STARLINK-36327          
1 67738U 26026T   26052.58335648 -.01687288  80720-3 -47334-2 0  9999
2 67738  97.2706 106.3906 0001390  88.6683 160.9265 15.93685200  2720
STARLINK-36329          
1 67739U 26026U   26052.58335648 -.01653534  78843-3 -43192-2 0  9998
2 67739  97.2689 106.4017 0001263  88.3043 189.5931 15.95034419  2720
