CCSDS_OMM_VERS = 2.0
CREATION_DATE  = 
ORIGINATOR     = 

OBJECT_NAME    = STARLINK-36757
OBJECT_ID      = 2026-026H
CENTER_NAME    = EARTH
REF_FRAME      = TEME
TIME_SYSTEM    = UTC
MEAN_ELEMENT_THEORY = SGP/SGP4

EPOCH          = 2026-02-21T14:00:01.999872
MEAN_MOTION    = 15.91571999
ECCENTRICITY   = .00015257
INCLINATION    = 97.2728
RA_OF_ASC_NODE = 106.3716
ARG_OF_PERICENTER = 94.5591
MEAN_ANOMALY   = 109.8125

EPHEMERIS_TYPE = 0
CLASSIFICATION_TYPE = U
NORAD_CAT_ID   = 67728
ELEMENT_SET_NO = 999
REV_AT_EPOCH   = 272
BSTAR          = -.54371006E-2
MEAN_MOTION_DOT = -.1736999E-1
MEAN_MOTION_DDOT = .83386441E-3

CCSDS_OMM_VERS = 2.0
CREATION_DATE  = 
ORIGINATOR     = 

OBJECT_NAME    = STARLINK-36751
OBJECT_ID      = 2026-026J
CENTER_NAME    = EARTH
REF_FRAME      = TEME
TIME_SYSTEM    = UTC
MEAN_ELEMENT_THEORY = SGP/SGP4

EPOCH          = 2026-02-21T14:00:01.999872
MEAN_MOTION    = 15.91999453
ECCENTRICITY   = .00014876
INCLINATION    = 97.2725
RA_OF_ASC_NODE = 106.3756
ARG_OF_PERICENTER = 94.0927
MEAN_ANOMALY   = 119.4692

EPHEMERIS_TYPE = 0
CLASSIFICATION_TYPE = U
NORAD_CAT_ID   = 67729
ELEMENT_SET_NO = 999
REV_AT_EPOCH   = 272
BSTAR          = -.52933604E-2
MEAN_MOTION_DOT = -.1728582E-1
MEAN_MOTION_DDOT = .82992672E-3

CCSDS_OMM_VERS = 2.0
CREATION_DATE  = 
ORIGINATOR     = 

OBJECT_NAME    = STARLINK-36747
OBJECT_ID      = 2026-026K
CENTER_NAME    = EARTH
REF_FRAME      = TEME
TIME_SYSTEM    = UTC
MEAN_ELEMENT_THEORY = SGP/SGP4

EPOCH          = 2026-02-21T14:00:01.999872
MEAN_MOTION    = 15.91741175
ECCENTRICITY   = .00014671
INCLINATION    = 97.2728
RA_OF_ASC_NODE = 106.3737
ARG_OF_PERICENTER = 91.4489
MEAN_ANOMALY   = 116.5848

EPHEMERIS_TYPE = 0
CLASSIFICATION_TYPE = U
NORAD_CAT_ID   = 67730
ELEMENT_SET_NO = 999
REV_AT_EPOCH   = 272
BSTAR          = -.53982284E-2
MEAN_MOTION_DOT = -.1739516E-1
MEAN_MOTION_DDOT = .83753866E-3

CCSDS_OMM_VERS = 2.0
CREATION_DATE  = 
ORIGINATOR     = 

OBJECT_NAME    = STARLINK-36315
OBJECT_ID      = 2026-026L
CENTER_NAME    = EARTH
REF_FRAME      = TEME
TIME_SYSTEM    = UTC
MEAN_ELEMENT_THEORY = SGP/SGP4

EPOCH          = 2026-02-21T14:00:01.999872
MEAN_MOTION    = 15.92158668
ECCENTRICITY   = .00015447
INCLINATION    = 97.2726
RA_OF_ASC_NODE = 106.3776
ARG_OF_PERICENTER = 99.5799
MEAN_ANOMALY   = 117.5517

EPHEMERIS_TYPE = 0
CLASSIFICATION_TYPE = U
NORAD_CAT_ID   = 67731
ELEMENT_SET_NO = 999
REV_AT_EPOCH   = 272
BSTAR          = -.52271164E-2
MEAN_MOTION_DOT = -.1721069E-1
MEAN_MOTION_DDOT = .82455228E-3

CCSDS_OMM_VERS = 2.0
CREATION_DATE  = 
ORIGINATOR     = 

OBJECT_NAME    = STARLINK-36260
OBJECT_ID      = 2026-026M
CENTER_NAME    = EARTH
REF_FRAME      = TEME
TIME_SYSTEM    = UTC
MEAN_ELEMENT_THEORY = SGP/SGP4

EPOCH          = 2026-02-21T14:00:01.999872
MEAN_MOTION    = 15.92360034
ECCENTRICITY   = .0001458
INCLINATION    = 97.2724
RA_OF_ASC_NODE = 106.3792
ARG_OF_PERICENTER = 88.2996
MEAN_ANOMALY   = 133.1553

EPHEMERIS_TYPE = 0
CLASSIFICATION_TYPE = U
NORAD_CAT_ID   = 67732
ELEMENT_SET_NO = 999
REV_AT_EPOCH   = 272
BSTAR          = -.5168855E-2
MEAN_MOTION_DOT = -.1719613E-1
MEAN_MOTION_DDOT = .82493994E-3

CCSDS_OMM_VERS = 2.0
CREATION_DATE  = 
ORIGINATOR     = 

OBJECT_NAME    = STARLINK-36746
OBJECT_ID      = 2026-026N
CENTER_NAME    = EARTH
REF_FRAME      = TEME
TIME_SYSTEM    = UTC
MEAN_ELEMENT_THEORY = SGP/SGP4

EPOCH          = 2026-02-21T14:00:01.999872
MEAN_MOTION    = 15.92491191
ECCENTRICITY   = .00015412
INCLINATION    = 97.2720
RA_OF_ASC_NODE = 106.3806
ARG_OF_PERICENTER = 91.2647
MEAN_ANOMALY   = 133.1803

EPHEMERIS_TYPE = 0
CLASSIFICATION_TYPE = U
NORAD_CAT_ID   = 67733
ELEMENT_SET_NO = 999
REV_AT_EPOCH   = 272
BSTAR          = -.51234014E-2
MEAN_MOTION_DOT = -.171612E-1
MEAN_MOTION_DDOT = .82291908E-3

CCSDS_OMM_VERS = 2.0
CREATION_DATE  = 
ORIGINATOR     = 

OBJECT_NAME    = STARLINK-36749
OBJECT_ID      = 2026-026P
CENTER_NAME    = EARTH
REF_FRAME      = TEME
TIME_SYSTEM    = UTC
MEAN_ELEMENT_THEORY = SGP/SGP4

EPOCH          = 2026-02-21T14:00:01.999872
MEAN_MOTION    = 15.92700575
ECCENTRICITY   = .0001441
INCLINATION    = 97.2717
RA_OF_ASC_NODE = 106.3821
ARG_OF_PERICENTER = 99.9571
MEAN_ANOMALY   = 128.9764

EPHEMERIS_TYPE = 0
CLASSIFICATION_TYPE = U
NORAD_CAT_ID   = 67734
ELEMENT_SET_NO = 999
REV_AT_EPOCH   = 272
BSTAR          = -.50461329E-2
MEAN_MOTION_DOT = -.1708686E-1
MEAN_MOTION_DDOT = .81803851E-3

CCSDS_OMM_VERS = 2.0
CREATION_DATE  = 
ORIGINATOR     = 

OBJECT_NAME    = STARLINK-36691
OBJECT_ID      = 2026-026Q
CENTER_NAME    = EARTH
REF_FRAME      = TEME
TIME_SYSTEM    = UTC
MEAN_ELEMENT_THEORY = SGP/SGP4

EPOCH          = 2026-02-21T14:00:01.999872
MEAN_MOTION    = 15.93274194
ECCENTRICITY   = .00014771
INCLINATION    = 97.2712
RA_OF_ASC_NODE = 106.3872
ARG_OF_PERICENTER = 87.0255
MEAN_ANOMALY   = 153.8917

EPHEMERIS_TYPE = 0
CLASSIFICATION_TYPE = U
NORAD_CAT_ID   = 67735
ELEMENT_SET_NO = 999
REV_AT_EPOCH   = 286
BSTAR          = -.485207E-2
MEAN_MOTION_DOT = -.1692819E-1
MEAN_MOTION_DDOT = .80869866E-3

CCSDS_OMM_VERS = 2.0
CREATION_DATE  = 
ORIGINATOR     = 

OBJECT_NAME    = STARLINK-36317
OBJECT_ID      = 2026-026R
CENTER_NAME    = EARTH
REF_FRAME      = TEME
TIME_SYSTEM    = UTC
MEAN_ELEMENT_THEORY = SGP/SGP4

EPOCH          = 2026-02-21T14:00:01.999872
MEAN_MOTION    = 15.92992770
ECCENTRICITY   = .00014863
INCLINATION    = 97.2712
RA_OF_ASC_NODE = 106.3839
ARG_OF_PERICENTER = 89.8651
MEAN_ANOMALY   = 145.2497

EPHEMERIS_TYPE = 0
CLASSIFICATION_TYPE = U
NORAD_CAT_ID   = 67736
ELEMENT_SET_NO = 999
REV_AT_EPOCH   = 272
BSTAR          = -.49263599E-2
MEAN_MOTION_DOT = -.1693765E-1
MEAN_MOTION_DDOT = .80720757E-3

CCSDS_OMM_VERS = 2.0
CREATION_DATE  = 
ORIGINATOR     = 

OBJECT_NAME    = STARLINK-36330
OBJECT_ID      = 2026-026S
CENTER_NAME    = EARTH
REF_FRAME      = TEME
TIME_SYSTEM    = UTC
MEAN_ELEMENT_THEORY = SGP/SGP4

EPOCH          = 2026-02-21T14:00:01.999872
MEAN_MOTION    = 15.93444364
ECCENTRICITY   = .00013989
INCLINATION    = 97.2709
RA_OF_ASC_NODE = 106.3883
ARG_OF_PERICENTER = 86.1638
MEAN_ANOMALY   = 158.5979

EPHEMERIS_TYPE = 0
CLASSIFICATION_TYPE = U
NORAD_CAT_ID   = 67737
ELEMENT_SET_NO = 999
REV_AT_EPOCH   = 272
BSTAR          = -.47555546E-2
MEAN_MOTION_DOT = -.167413E-1
MEAN_MOTION_DDOT = .79355998E-3

CCSDS_OMM_VERS = 2.0
CREATION_DATE  = 
ORIGINATOR     = 

OBJECT_NAME    = STARLINK-36327
OBJECT_ID      = 2026-026T
CENTER_NAME    = EARTH
REF_FRAME      = TEME
TIME_SYSTEM    = UTC
MEAN_ELEMENT_THEORY = SGP/SGP4

EPOCH          = 2026-02-21T14:00:01.999872
MEAN_MOTION    = 15.93685200
ECCENTRICITY   = .00013909
INCLINATION    = 97.2706
RA_OF_ASC_NODE = 106.3906
ARG_OF_PERICENTER = 88.6683
MEAN_ANOMALY   = 160.9265

EPHEMERIS_TYPE = 0
CLASSIFICATION_TYPE = U
NORAD_CAT_ID   = 67738
ELEMENT_SET_NO = 999
REV_AT_EPOCH   = 272
BSTAR          = -.47334451E-2
MEAN_MOTION_DOT = -.1687288E-1
MEAN_MOTION_DDOT = .80719873E-3

CCSDS_OMM_VERS = 2.0
CREATION_DATE  = 
ORIGINATOR     = 

OBJECT_NAME    = STARLINK-36329
OBJECT_ID      = 2026-026U
CENTER_NAME    = EARTH
REF_FRAME      = TEME
TIME_SYSTEM    = UTC
MEAN_ELEMENT_THEORY = SGP/SGP4

EPOCH          = 2026-02-21T14:00:01.999872
MEAN_MOTION    = 15.95034419
ECCENTRICITY   = .00012635
INCLINATION    = 97.2689
RA_OF_ASC_NODE = 106.4017
ARG_OF_PERICENTER = 88.3043
MEAN_ANOMALY   = 189.5931

EPHEMERIS_TYPE = 0
CLASSIFICATION_TYPE = U
NORAD_CAT_ID   = 67739
ELEMENT_SET_NO = 999
REV_AT_EPOCH   = 272
BSTAR          = -.43192091E-2
MEAN_MOTION_DOT = -.1653534E-1
MEAN_MOTION_DDOT = .78842749E-3

